CCSDS_OMM_VERS = 2.0
CREATION_DATE  = 
ORIGINATOR     = 

OBJECT_NAME    = AQUA
OBJECT_ID      = 2002-022A
CENTER_NAME    = EARTH
REF_FRAME      = TEME
TIME_SYSTEM    = UTC
MEAN_ELEMENT_THEORY = SGP/SGP4

EPOCH          = 2026-04-05T12:32:11.374368
MEAN_MOTION    = 14.62043466
ECCENTRICITY   = .0001438
INCLINATION    = 98.4221
RA_OF_ASC_NODE = 63.3856
ARG_OF_PERICENTER = 114.8249
MEAN_ANOMALY   = 356.3467

EPHEMERIS_TYPE = 0
CLASSIFICATION_TYPE = U
NORAD_CAT_ID   = 27424
ELEMENT_SET_NO = 999
REV_AT_EPOCH   = 27265
BSTAR          = .30101E-3
MEAN_MOTION_DOT = .1461E-4
MEAN_MOTION_DDOT = 0

CCSDS_OMM_VERS = 2.0
CREATION_DATE  = 
ORIGINATOR     = 

OBJECT_NAME    = CZ-4B R/B
OBJECT_ID      = 2002-024C
CENTER_NAME    = EARTH
REF_FRAME      = TEME
TIME_SYSTEM    = UTC
MEAN_ELEMENT_THEORY = SGP/SGP4

EPOCH          = 2026-04-05T09:00:36.794304
MEAN_MOTION    = 14.14552807
ECCENTRICITY   = .0049221
INCLINATION    = 98.8780
RA_OF_ASC_NODE = 148.6406
ARG_OF_PERICENTER = 307.9484
MEAN_ANOMALY   = 62.1973

EPHEMERIS_TYPE = 0
CLASSIFICATION_TYPE = U
NORAD_CAT_ID   = 27432
ELEMENT_SET_NO = 999
REV_AT_EPOCH   = 23301
BSTAR          = .56883E-4
MEAN_MOTION_DOT = .66E-6
MEAN_MOTION_DDOT = 0

CCSDS_OMM_VERS = 2.0
CREATION_DATE  = 
ORIGINATOR     = 

OBJECT_NAME    = MIDORI II (ADEOS-II)
OBJECT_ID      = 2002-056A
CENTER_NAME    = EARTH
REF_FRAME      = TEME
TIME_SYSTEM    = UTC
MEAN_ELEMENT_THEORY = SGP/SGP4

EPOCH          = 2026-04-05T11:24:27.876960
MEAN_MOTION    = 14.29307155
ECCENTRICITY   = .0000339
INCLINATION    = 98.7816
RA_OF_ASC_NODE = 54.1460
ARG_OF_PERICENTER = 22.9980
MEAN_ANOMALY   = 337.1217

EPHEMERIS_TYPE = 0
CLASSIFICATION_TYPE = U
NORAD_CAT_ID   = 27597
ELEMENT_SET_NO = 999
REV_AT_EPOCH   = 21412
BSTAR          = .1986E-3
MEAN_MOTION_DOT = .46E-5
MEAN_MOTION_DDOT = 0

CCSDS_OMM_VERS = 2.0
CREATION_DATE  = 
ORIGINATOR     = 

OBJECT_NAME    = H-2A R/B
OBJECT_ID      = 2002-056E
CENTER_NAME    = EARTH
REF_FRAME      = TEME
TIME_SYSTEM    = UTC
MEAN_ELEMENT_THEORY = SGP/SGP4

EPOCH          = 2026-04-05T12:21:53.282592
MEAN_MOTION    = 14.33780925
ECCENTRICITY   = .0071415
INCLINATION    = 98.3250
RA_OF_ASC_NODE = 54.8673
ARG_OF_PERICENTER = 81.7810
MEAN_ANOMALY   = 30.2100

EPHEMERIS_TYPE = 0
CLASSIFICATION_TYPE = U
NORAD_CAT_ID   = 27601
ELEMENT_SET_NO = 999
REV_AT_EPOCH   = 21795
BSTAR          = .17702E-3
MEAN_MOTION_DOT = .465E-5
MEAN_MOTION_DDOT = 0

CCSDS_OMM_VERS = 2.0
CREATION_DATE  = 
ORIGINATOR     = 

OBJECT_NAME    = CZ-4B R/B
OBJECT_ID      = 2003-049C
CENTER_NAME    = EARTH
REF_FRAME      = TEME
TIME_SYSTEM    = UTC
MEAN_ELEMENT_THEORY = SGP/SGP4

EPOCH          = 2026-04-05T11:28:08.285088
MEAN_MOTION    = 14.55045852
ECCENTRICITY   = .0048729
INCLINATION    = 98.6899
RA_OF_ASC_NODE = 91.4384
ARG_OF_PERICENTER = 148.7903
MEAN_ANOMALY   = 211.6203

EPHEMERIS_TYPE = 0
CLASSIFICATION_TYPE = U
NORAD_CAT_ID   = 28059
ELEMENT_SET_NO = 999
REV_AT_EPOCH   = 19049
BSTAR          = .12722E-3
MEAN_MOTION_DOT = .506E-5
MEAN_MOTION_DDOT = 0

CCSDS_OMM_VERS = 2.0
CREATION_DATE  = 
ORIGINATOR     = 

OBJECT_NAME    = CZ-2C R/B
OBJECT_ID      = 2004-012C
CENTER_NAME    = EARTH
REF_FRAME      = TEME
TIME_SYSTEM    = UTC
MEAN_ELEMENT_THEORY = SGP/SGP4

EPOCH          = 2026-04-05T10:39:28.646784
MEAN_MOTION    = 15.68019060
ECCENTRICITY   = .0013667
INCLINATION    = 97.7162
RA_OF_ASC_NODE = 163.3316
ARG_OF_PERICENTER = 205.5588
MEAN_ANOMALY   = 154.4998

EPHEMERIS_TYPE = 0
CLASSIFICATION_TYPE = U
NORAD_CAT_ID   = 28222
ELEMENT_SET_NO = 999
REV_AT_EPOCH   = 20846
BSTAR          = .68229E-3
MEAN_MOTION_DOT = .76305E-3
MEAN_MOTION_DDOT = 0

CCSDS_OMM_VERS = 2.0
CREATION_DATE  = 
ORIGINATOR     = 

OBJECT_NAME    = SL-16 R/B
OBJECT_ID      = 2004-021B
CENTER_NAME    = EARTH
REF_FRAME      = TEME
TIME_SYSTEM    = UTC
MEAN_ELEMENT_THEORY = SGP/SGP4

EPOCH          = 2026-04-05T09:33:53.322048
MEAN_MOTION    = 14.14600686
ECCENTRICITY   = .000549
INCLINATION    = 71.0013
RA_OF_ASC_NODE = 176.4441
ARG_OF_PERICENTER = 336.0251
MEAN_ANOMALY   = 24.0615

EPHEMERIS_TYPE = 0
CLASSIFICATION_TYPE = U
NORAD_CAT_ID   = 28353
ELEMENT_SET_NO = 999
REV_AT_EPOCH   = 12661
BSTAR          = .2202E-3
MEAN_MOTION_DOT = .376E-5
MEAN_MOTION_DDOT = 0

CCSDS_OMM_VERS = 2.0
CREATION_DATE  = 
ORIGINATOR     = 

OBJECT_NAME    = CZ-4B R/B
OBJECT_ID      = 2004-035C
CENTER_NAME    = EARTH
REF_FRAME      = TEME
TIME_SYSTEM    = UTC
MEAN_ELEMENT_THEORY = SGP/SGP4

EPOCH          = 2026-04-05T08:14:44.795328
MEAN_MOTION    = 15.29564891
ECCENTRICITY   = .003036
INCLINATION    = 97.3450
RA_OF_ASC_NODE = 129.2688
ARG_OF_PERICENTER = 231.7992
MEAN_ANOMALY   = 128.0514

EPHEMERIS_TYPE = 0
CLASSIFICATION_TYPE = U
NORAD_CAT_ID   = 28415
ELEMENT_SET_NO = 999
REV_AT_EPOCH   = 18398
BSTAR          = .33983E-3
MEAN_MOTION_DOT = .9799E-4
MEAN_MOTION_DDOT = 0

CCSDS_OMM_VERS = 2.0
CREATION_DATE  = 
ORIGINATOR     = 

OBJECT_NAME    = CZ-2C R/B
OBJECT_ID      = 2004-046B
CENTER_NAME    = EARTH
REF_FRAME      = TEME
TIME_SYSTEM    = UTC
MEAN_ELEMENT_THEORY = SGP/SGP4

EPOCH          = 2026-04-05T11:32:40.070976
MEAN_MOTION    = 14.27003267
ECCENTRICITY   = .0140604
INCLINATION    = 98.1975
RA_OF_ASC_NODE = 8.7955
ARG_OF_PERICENTER = 75.7676
MEAN_ANOMALY   = 285.9077

EPHEMERIS_TYPE = 0
CLASSIFICATION_TYPE = U
NORAD_CAT_ID   = 28480
ELEMENT_SET_NO = 999
REV_AT_EPOCH   = 11232
BSTAR          = .11427E-3
MEAN_MOTION_DOT = .269E-5
MEAN_MOTION_DDOT = 0

CCSDS_OMM_VERS = 2.0
CREATION_DATE  = 
ORIGINATOR     = 

OBJECT_NAME    = ARIANE 5 R/B
OBJECT_ID      = 2004-049H
CENTER_NAME    = EARTH
REF_FRAME      = TEME
TIME_SYSTEM    = UTC
MEAN_ELEMENT_THEORY = SGP/SGP4

EPOCH          = 2026-04-05T10:40:36.043104
MEAN_MOTION    = 14.85320748
ECCENTRICITY   = .0082814
INCLINATION    = 98.2666
RA_OF_ASC_NODE = 264.9111
ARG_OF_PERICENTER = 264.2866
MEAN_ANOMALY   = 94.8901

EPHEMERIS_TYPE = 0
CLASSIFICATION_TYPE = U
NORAD_CAT_ID   = 28499
ELEMENT_SET_NO = 999
REV_AT_EPOCH   = 14976
BSTAR          = .15095E-3
MEAN_MOTION_DOT = .1313E-4
MEAN_MOTION_DDOT = 0

CCSDS_OMM_VERS = 2.0
CREATION_DATE  = 
ORIGINATOR     = 

OBJECT_NAME    = CZ-2D R/B
OBJECT_ID      = 2005-024B
CENTER_NAME    = EARTH
REF_FRAME      = TEME
TIME_SYSTEM    = UTC
MEAN_ELEMENT_THEORY = SGP/SGP4

EPOCH          = 2026-04-05T11:57:19.623456
MEAN_MOTION    = 15.62797543
ECCENTRICITY   = .0001827
INCLINATION    = 97.3565
RA_OF_ASC_NODE = 111.6754
ARG_OF_PERICENTER = 271.2887
MEAN_ANOMALY   = 88.8162

EPHEMERIS_TYPE = 0
CLASSIFICATION_TYPE = U
NORAD_CAT_ID   = 28738
ELEMENT_SET_NO = 999
REV_AT_EPOCH   = 14396
BSTAR          = .58687E-3
MEAN_MOTION_DOT = .52918E-3
MEAN_MOTION_DDOT = 0

CCSDS_OMM_VERS = 2.0
CREATION_DATE  = 
ORIGINATOR     = 

OBJECT_NAME    = ALOS (DAICHI)
OBJECT_ID      = 2006-002A
CENTER_NAME    = EARTH
REF_FRAME      = TEME
TIME_SYSTEM    = UTC
MEAN_ELEMENT_THEORY = SGP/SGP4

EPOCH          = 2026-04-05T09:25:14.159136
MEAN_MOTION    = 14.69899033
ECCENTRICITY   = .0001166
INCLINATION    = 98.1264
RA_OF_ASC_NODE = 51.2233
ARG_OF_PERICENTER = 115.9464
MEAN_ANOMALY   = 244.1862

EPHEMERIS_TYPE = 0
CLASSIFICATION_TYPE = U
NORAD_CAT_ID   = 28931
ELEMENT_SET_NO = 999
REV_AT_EPOCH   = 7740
BSTAR          = .34477E-3
MEAN_MOTION_DOT = .2013E-4
MEAN_MOTION_DDOT = 0

