AQUA                    
1 27424U 02022A   26095.52235387  .00001461  00000+0  30101-3 0  9991
2 27424  98.4221  63.3856 0001438 114.8249 356.3467 14.62043466272655
CZ-4B R/B               
1 27432U 02024C   26095.37542586  .00000066  00000+0  56883-4 0  9993
2 27432  98.8780 148.6406 0049221 307.9484  62.1973 14.14552807233016
MIDORI II (ADEOS-II)    
1 27597U 02056A   26095.47532265  .00000460  00000+0  19860-3 0  9995
2 27597  98.7816  54.1460 0000339  22.9980 337.1217 14.29307155214127
H-2A R/B                
1 27601U 02056E   26095.51520003  .00000465  00000+0  17702-3 0  9991
2 27601  98.3250  54.8673 0071415  81.7810  30.2100 14.33780925217953
CZ-4B R/B               
1 28059U 03049C   26095.47787367  .00000506  00000+0  12722-3 0  9998
2 28059  98.6899  91.4384 0048729 148.7903 211.6203 14.55045852190493
CZ-2C R/B               
1 28222U 04012C   26095.44408156  .00076305  00000+0  68229-3 0  9997
2 28222  97.7162 163.3316 0013667 205.5588 154.4998 15.68019060208465
SL-16 R/B               
1 28353U 04021B   26095.39853382  .00000376  00000+0  22020-3 0  9995
2 28353  71.0013 176.4441 0005490 336.0251  24.0615 14.14600686126610
CZ-4B R/B               
1 28415U 04035C   26095.34357402  .00009799  00000+0  33983-3 0  9994
2 28415  97.3450 129.2688 0030360 231.7992 128.0514 15.29564891183981
CZ-2C R/B               
1 28480U 04046B   26095.48101934  .00000269  00000+0  11427-3 0  9992
2 28480  98.1975   8.7955 0140604  75.7676 285.9077 14.27003267112329
ARIANE 5 R/B            
1 28499U 04049H   26095.44486161  .00001313  00000+0  15095-3 0  9995
2 28499  98.2666 264.9111 0082814 264.2866  94.8901 14.85320748149762
CZ-2D R/B               
1 28738U 05024B   26095.49814379  .00052918  00000+0  58687-3 0  9997
2 28738  97.3565 111.6754 0001827 271.2887  88.8162 15.62797543143968
ALOS (DAICHI)           
1 28931U 06002A   26095.39252499  .00002013  00000+0  34477-3 0  9999
2 28931  98.1264  51.2233 0001166 115.9464 244.1862 14.69899033 77402
